{"type": "FeatureCollection", "features": [ {"type": "Feature", "properties": {"norad_id": 33939, "name": "COSMOS 2251 DEB", "group": "cosmos-2251-debris", "lat": 4.8654917314790165, "lon": -127.67540864097516, "alt_km": 569.8273518129372, "timestamp": "2025-12-25T22:42:17.406261+00:00", "meta": {"OBJECT_NAME": "COSMOS 2251 DEB", "OBJECT_ID": "1993-036EU", "EPOCH": "2025-12-25T13:55:45.725376", "MEAN_MOTION": 15.00770222, "ECCENTRICITY": 0.0005075, "INCLINATION": 74.006, "RA_OF_ASC_NODE": 54.4687, "ARG_OF_PERICENTER": 13.1312, "MEAN_ANOMALY": 347.0006, "EPHEMERIS_TYPE": 0, "CLASSIFICATION_TYPE": "U", "NORAD_CAT_ID": 33939, "ELEMENT_SET_NO": 999, "REV_AT_EPOCH": 88945, "BSTAR": 0.0030021, "MEAN_MOTION_DOT": 0.00038285, "MEAN_MOTION_DDOT": 0}, "tle": {"line1": "1 33939U 93036EU  25359.58039034  .00038285  00000+0  30021-2 0  9997", "line2": "2 33939  74.0060  54.4687 0005075  13.1312 347.0006 15.00770222889458"}}, "geometry": {"type": "Point", "coordinates": [-127.67540864097516, 4.8654917314790165]}}, {"type": "Feature", "properties": {"norad_id": 33940, "name": "COSMOS 2251 DEB", "group": "cosmos-2251-debris", "lat": 43.22623756673528, "lon": -77.25373716044564, "alt_km": 689.4695883633149, "timestamp": "2025-12-25T22:42:17.406274+00:00", "meta": {"OBJECT_NAME": "COSMOS 2251 DEB", "OBJECT_ID": "1993-036EV", "EPOCH": "2025-12-25T10:53:44.024064", "MEAN_MOTION": 14.58915559, "ECCENTRICITY": 0.0010677, "INCLINATION": 74.04, "RA_OF_ASC_NODE": 119.2869, "ARG_OF_PERICENTER": 200.1373, "MEAN_ANOMALY": 231.2161, "EPHEMERIS_TYPE": 0, "CLASSIFICATION_TYPE": "U", "NORAD_CAT_ID": 33940, "ELEMENT_SET_NO": 999, "REV_AT_EPOCH": 88779, "BSTAR": 0.001164, "MEAN_MOTION_DOT": 5.435e-05, "MEAN_MOTION_DDOT": 0}, "tle": {"line1": "1 33940U 93036EV  25359.45398176  .00005435  00000+0  11640-2 0  9997", "line2": "2 33940  74.0400 119.2869 0010677 200.1373 231.2161 14.58915559887796"}}, "geometry": {"type": "Point", "coordinates": [-77.25373716044564, 43.22623756673528]}}, {"type": "Feature", "properties": {"norad_id": 33942, "name": "COSMOS 2251 DEB", "group": "cosmos-2251-debris", "lat": 57.53000305176785, "lon": -82.75861589709645, "alt_km": 759.1747184978649, "timestamp": "2025-12-25T22:42:17.406284+00:00", "meta": {"OBJECT_NAME": "COSMOS 2251 DEB", "OBJECT_ID": "1993-036EX", "EPOCH": "2025-12-25T17:41:02.010048", "MEAN_MOTION": 14.38005632, "ECCENTRICITY": 0.0020829, "INCLINATION": 74.036, "RA_OF_ASC_NODE": 250.8929, "ARG_OF_PERICENTER": 331.8372, "MEAN_ANOMALY": 86.7382, "EPHEMERIS_TYPE": 0, "CLASSIFICATION_TYPE": "U", "NORAD_CAT_ID": 33942, "ELEMENT_SET_NO": 999, "REV_AT_EPOCH": 88321, "BSTAR": 0.00019455, "MEAN_MOTION_DOT": 5.64e-06, "MEAN_MOTION_DDOT": 0}, "tle": {"line1": "1 33942U 93036EX  25359.73682882  .00000564  00000+0  19455-3 0  9991", "line2": "2 33942  74.0360 250.8929 0020829 331.8372  86.7382 14.38005632883214"}}, "geometry": {"type": "Point", "coordinates": [-82.75861589709645, 57.53000305176785]}}, {"type": "Feature", "properties": {"norad_id": 33944, "name": "COSMOS 2251 DEB", "group": "cosmos-2251-debris", "lat": -72.99483056205865, "lon": 173.96979973451005, "alt_km": 809.7647285916337, "timestamp": "2025-12-25T22:42:17.406295+00:00", "meta": {"OBJECT_NAME": "COSMOS 2251 DEB", "OBJECT_ID": "1993-036EZ", "EPOCH": "2025-12-25T13:56:44.880000", "MEAN_MOTION": 14.3737236, "ECCENTRICITY": 0.0112751, "INCLINATION": 74.0407, "RA_OF_ASC_NODE": 285.3008, "ARG_OF_PERICENTER": 21.6366, "MEAN_ANOMALY": 155.8462, "EPHEMERIS_TYPE": 0, "CLASSIFICATION_TYPE": "U", "NORAD_CAT_ID": 33944, "ELEMENT_SET_NO": 999, "REV_AT_EPOCH": 88212, "BSTAR": 0.00038898, "MEAN_MOTION_DOT": 1.223e-05, "MEAN_MOTION_DDOT": 0}, "tle": {"line1": "1 33944U 93036EZ  25359.58107500  .00001223  00000+0  38898-3 0  9990", "line2": "2 33944  74.0407 285.3008 0112751  21.6366 155.8462 14.37372360882122"}}, "geometry": {"type": "Point", "coordinates": [173.96979973451005, -72.99483056205865]}}, {"type": "Feature", "properties": {"norad_id": 33945, "name": "COSMOS 2251 DEB", "group": "cosmos-2251-debris", "lat": -66.7749322762803, "lon": -119.79100906212547, "alt_km": 779.8283326583669, "timestamp": "2025-12-25T22:42:17.406305+00:00", "meta": {"OBJECT_NAME": "COSMOS 2251 DEB", "OBJECT_ID": "1993-036FA", "EPOCH": "2025-12-25T04:38:00.841056", "MEAN_MOTION": 14.34610401, "ECCENTRICITY": 0.0022451, "INCLINATION": 74.0303, "RA_OF_ASC_NODE": 283.4484, "ARG_OF_PERICENTER": 6.5017, "MEAN_ANOMALY": 353.6422, "EPHEMERIS_TYPE": 0, "CLASSIFICATION_TYPE": "U", "NORAD_CAT_ID": 33945, "ELEMENT_SET_NO": 999, "REV_AT_EPOCH": 88194, "BSTAR": 0.00014109, "MEAN_MOTION_DOT": 3.74e-06, "MEAN_MOTION_DDOT": 0}, "tle": {"line1": "1 33945U 93036FA  25359.19306529  .00000374  00000+0  14109-3 0  9995", "line2": "2 33945  74.0303 283.4484 0022451   6.5017 353.6422 14.34610401881948"}}, "geometry": {"type": "Point", "coordinates": [-119.79100906212547, -66.7749322762803]}}, {"type": "Feature", "properties": {"norad_id": 33948, "name": "COSMOS 2251 DEB", "group": "cosmos-2251-debris", "lat": -5.1295849740720145, "lon": 102.37671642613512, "alt_km": 792.4871817607363, "timestamp": "2025-12-25T22:42:17.406315+00:00", "meta": {"OBJECT_NAME": "COSMOS 2251 DEB", "OBJECT_ID": "1993-036FD", "EPOCH": "2025-12-25T03:26:53.558016", "MEAN_MOTION": 14.35643431, "ECCENTRICITY": 0.0023276, "INCLINATION": 74.0361, "RA_OF_ASC_NODE": 282.3758, "ARG_OF_PERICENTER": 355.2933, "MEAN_ANOMALY": 4.7997, "EPHEMERIS_TYPE": 0, "CLASSIFICATION_TYPE": "U", "NORAD_CAT_ID": 33948, "ELEMENT_SET_NO": 999, "REV_AT_EPOCH": 88201, "BSTAR": 0.00019909, "MEAN_MOTION_DOT": 5.5e-06, "MEAN_MOTION_DDOT": 0}, "tle": {"line1": "1 33948U 93036FD  25359.14367544  .00000550  00000+0  19909-3 0  9996", "line2": "2 33948  74.0361 282.3758 0023276 355.2933   4.7997 14.35643431882014"}}, "geometry": {"type": "Point", "coordinates": [102.37671642613512, -5.1295849740720145]}}, {"type": "Feature", "properties": {"norad_id": 33971, "name": "COSMOS 2251 DEB", "group": "cosmos-2251-debris", "lat": 73.8981976919242, "lon": -47.72892456960471, "alt_km": 758.7617669113233, "timestamp": "2025-12-25T22:42:17.406325+00:00", "meta": {"OBJECT_NAME": "COSMOS 2251 DEB", "OBJECT_ID": "1993-036FE", "EPOCH": "2025-12-25T17:35:18.989952", "MEAN_MOTION": 14.39746475, "ECCENTRICITY": 0.0019021, "INCLINATION": 74.0237, "RA_OF_ASC_NODE": 229.7201, "ARG_OF_PERICENTER": 328.1416, "MEAN_ANOMALY": 95.2565, "EPHEMERIS_TYPE": 0, "CLASSIFICATION_TYPE": "U", "NORAD_CAT_ID": 33971, "ELEMENT_SET_NO": 999, "REV_AT_EPOCH": 88326, "BSTAR": 0.00023932, "MEAN_MOTION_DOT": 7.25e-06, "MEAN_MOTION_DDOT": 0}, "tle": {"line1": "1 33971U 93036FE  25359.73285868  .00000725  00000+0  23932-3 0  9990", "line2": "2 33971  74.0237 229.7201 0019021 328.1416  95.2565 14.39746475883268"}}, "geometry": {"type": "Point", "coordinates": [-47.72892456960471, 73.8981976919242]}}, {"type": "Feature", "properties": {"norad_id": 33972, "name": "COSMOS 2251 DEB", "group": "cosmos-2251-debris", "lat": -38.19325010812025, "lon": -0.6042437085704403, "alt_km": 807.7061614010227, "timestamp": "2025-12-25T22:42:17.406336+00:00", "meta": {"OBJECT_NAME": "COSMOS 2251 DEB", "OBJECT_ID": "1993-036FF", "EPOCH": "2025-12-22T11:54:25.691616", "MEAN_MOTION": 14.36292058, "ECCENTRICITY": 0.01238157, "INCLINATION": 73.9934, "RA_OF_ASC_NODE": 172.696, "ARG_OF_PERICENTER": 338.2339, "MEAN_ANOMALY": 51.7728, "EPHEMERIS_TYPE": 0, "CLASSIFICATION_TYPE": "U", "NORAD_CAT_ID": 33972, "ELEMENT_SET_NO": 999, "REV_AT_EPOCH": 87214, "BSTAR": 0.0012268858, "MEAN_MOTION_DOT": 3.888e-05, "MEAN_MOTION_DDOT": 0}, "tle": {"line1": "1 33972U 93036FF  25356.49613069  .00003888  00000+0  12269-2 0  9992", "line2": "2 33972  73.9934 172.6960 0123815 338.2339  51.7728 14.36292058872145"}}, "geometry": {"type": "Point", "coordinates": [-0.6042437085704403, -38.19325010812025]}}, {"type": "Feature", "properties": {"norad_id": 33973, "name": "COSMOS 2251 DEB", "group": "cosmos-2251-debris", "lat": 43.450035734461295, "lon": 93.99869780977933, "alt_km": 766.3262014338334, "timestamp": "2025-12-25T22:42:17.406346+00:00", "meta": {"OBJECT_NAME": "COSMOS 2251 DEB", "OBJECT_ID": "1993-036FG", "EPOCH": "2025-12-25T16:24:44.443872", "MEAN_MOTION": 14.45404582, "ECCENTRICITY": 0.0047374, "INCLINATION": 74.0087, "RA_OF_ASC_NODE": 78.7251, "ARG_OF_PERICENTER": 254.7784, "MEAN_ANOMALY": 226.9895, "EPHEMERIS_TYPE": 0, "CLASSIFICATION_TYPE": "U", "NORAD_CAT_ID": 33973, "ELEMENT_SET_NO": 999, "REV_AT_EPOCH": 88787, "BSTAR": 0.0001551, "MEAN_MOTION_DOT": 5.25e-06, "MEAN_MOTION_DDOT": 0}, "tle": {"line1": "1 33973U 93036FG  25359.68384773  .00000525  00000+0  15510-3 0  9992", "line2": "2 33973  74.0087  78.7251 0047374 254.7784 226.9895 14.45404582887871"}}, "geometry": {"type": "Point", "coordinates": [93.99869780977933, 43.450035734461295]}}, {"type": "Feature", "properties": {"norad_id": 33975, "name": "COSMOS 2251 DEB", "group": "cosmos-2251-debris", "lat": 15.371147268245275, "lon": 65.82204770377325, "alt_km": 1030.6418736367023, "timestamp": "2025-12-25T22:42:17.406356+00:00", "meta": {"OBJECT_NAME": "COSMOS 2251 DEB", "OBJECT_ID": "1993-036FJ", "EPOCH": "2025-12-25T10:37:32.062080", "MEAN_MOTION": 14.00548928, "ECCENTRICITY": 0.0190823, "INCLINATION": 73.8015, "RA_OF_ASC_NODE": 62.1231, "ARG_OF_PERICENTER": 193.0479, "MEAN_ANOMALY": 166.5681, "EPHEMERIS_TYPE": 0, "CLASSIFICATION_TYPE": "U", "NORAD_CAT_ID": 33975, "ELEMENT_SET_NO": 999, "REV_AT_EPOCH": 86007, "BSTAR": 0.00050069, "MEAN_MOTION_DOT": 8.45e-06, "MEAN_MOTION_DDOT": 0}, "tle": {"line1": "1 33975U 93036FJ  25359.44273220  .00000845  00000+0  50069-3 0  9995", "line2": "2 33975  73.8015  62.1231 0190823 193.0479 166.5681 14.00548928860079"}}, "geometry": {"type": "Point", "coordinates": [65.82204770377325, 15.371147268245275]}}]}